CCSDS_OMM_VERS = 2.0
CREATION_DATE  = 
ORIGINATOR     = 

OBJECT_NAME    = STARLINK-36472
OBJECT_ID      = 2026-003N
CENTER_NAME    = EARTH
REF_FRAME      = TEME
TIME_SYSTEM    = UTC
MEAN_ELEMENT_THEORY = SGP/SGP4

EPOCH          = 2026-02-04T06:00:04.000320
MEAN_MOTION    = 15.50587480
ECCENTRICITY   = .00014312
INCLINATION    = 42.9993
RA_OF_ASC_NODE = 57.0678
ARG_OF_PERICENTER = 267.5795
MEAN_ANOMALY   = 195.2173

EPHEMERIS_TYPE = 0
CLASSIFICATION_TYPE = U
NORAD_CAT_ID   = 67346
ELEMENT_SET_NO = 999
REV_AT_EPOCH   = 529
BSTAR          = -.10749225E-2
MEAN_MOTION_DOT = -.62916E-3
MEAN_MOTION_DDOT = 0

CCSDS_OMM_VERS = 2.0
CREATION_DATE  = 
ORIGINATOR     = 

OBJECT_NAME    = STARLINK-36420
OBJECT_ID      = 2026-003P
CENTER_NAME    = EARTH
REF_FRAME      = TEME
TIME_SYSTEM    = UTC
MEAN_ELEMENT_THEORY = SGP/SGP4

EPOCH          = 2026-02-04T06:00:04.000320
MEAN_MOTION    = 15.50593039
ECCENTRICITY   = .00013786
INCLINATION    = 42.9993
RA_OF_ASC_NODE = 57.0578
ARG_OF_PERICENTER = 269.2034
MEAN_ANOMALY   = 197.4248

EPHEMERIS_TYPE = 0
CLASSIFICATION_TYPE = U
NORAD_CAT_ID   = 67347
ELEMENT_SET_NO = 999
REV_AT_EPOCH   = 530
BSTAR          = -.12072477E-2
MEAN_MOTION_DOT = -.70565E-3
MEAN_MOTION_DDOT = 0

CCSDS_OMM_VERS = 2.0
CREATION_DATE  = 
ORIGINATOR     = 

OBJECT_NAME    = STARLINK-36467
OBJECT_ID      = 2026-003Q
CENTER_NAME    = EARTH
REF_FRAME      = TEME
TIME_SYSTEM    = UTC
MEAN_ELEMENT_THEORY = SGP/SGP4

EPOCH          = 2026-02-04T06:00:04.000320
MEAN_MOTION    = 15.50598666
ECCENTRICITY   = .00014106
INCLINATION    = 42.9993
RA_OF_ASC_NODE = 57.0636
ARG_OF_PERICENTER = 269.0688
MEAN_ANOMALY   = 195.6407

EPHEMERIS_TYPE = 0
CLASSIFICATION_TYPE = U
NORAD_CAT_ID   = 67348
ELEMENT_SET_NO = 999
REV_AT_EPOCH   = 530
BSTAR          = -.13978295E-2
MEAN_MOTION_DOT = -.81553E-3
MEAN_MOTION_DDOT = 0

CCSDS_OMM_VERS = 2.0
CREATION_DATE  = 
ORIGINATOR     = 

OBJECT_NAME    = STARLINK-36457
OBJECT_ID      = 2026-003R
CENTER_NAME    = EARTH
REF_FRAME      = TEME
TIME_SYSTEM    = UTC
MEAN_ELEMENT_THEORY = SGP/SGP4

EPOCH          = 2026-02-04T06:00:04.000320
MEAN_MOTION    = 15.50596254
ECCENTRICITY   = .00013295
INCLINATION    = 42.9993
RA_OF_ASC_NODE = 57.0534
ARG_OF_PERICENTER = 264.2535
MEAN_ANOMALY   = 204.2895

EPHEMERIS_TYPE = 0
CLASSIFICATION_TYPE = U
NORAD_CAT_ID   = 67349
ELEMENT_SET_NO = 999
REV_AT_EPOCH   = 530
BSTAR          = -.12930167E-2
MEAN_MOTION_DOT = -.75515E-3
MEAN_MOTION_DDOT = 0

CCSDS_OMM_VERS = 2.0
CREATION_DATE  = 
ORIGINATOR     = 

OBJECT_NAME    = STARLINK-36475
OBJECT_ID      = 2026-003S
CENTER_NAME    = EARTH
REF_FRAME      = TEME
TIME_SYSTEM    = UTC
MEAN_ELEMENT_THEORY = SGP/SGP4

EPOCH          = 2026-02-04T06:00:04.000320
MEAN_MOTION    = 15.50600123
ECCENTRICITY   = .00013759
INCLINATION    = 42.9993
RA_OF_ASC_NODE = 57.0479
ARG_OF_PERICENTER = 256.9490
MEAN_ANOMALY   = 213.5104

EPHEMERIS_TYPE = 0
CLASSIFICATION_TYPE = U
NORAD_CAT_ID   = 67350
ELEMENT_SET_NO = 999
REV_AT_EPOCH   = 529
BSTAR          = -.13717433E-2
MEAN_MOTION_DOT = -.80057E-3
MEAN_MOTION_DDOT = 0

CCSDS_OMM_VERS = 2.0
CREATION_DATE  = 
ORIGINATOR     = 

OBJECT_NAME    = STARLINK-36478
OBJECT_ID      = 2026-003T
CENTER_NAME    = EARTH
REF_FRAME      = TEME
TIME_SYSTEM    = UTC
MEAN_ELEMENT_THEORY = SGP/SGP4

EPOCH          = 2026-02-04T06:00:04.000320
MEAN_MOTION    = 15.50587559
ECCENTRICITY   = .00011112
INCLINATION    = 42.9992
RA_OF_ASC_NODE = 57.0434
ARG_OF_PERICENTER = 266.8452
MEAN_ANOMALY   = 205.5374

EPHEMERIS_TYPE = 0
CLASSIFICATION_TYPE = U
NORAD_CAT_ID   = 67351
ELEMENT_SET_NO = 999
REV_AT_EPOCH   = 529
BSTAR          = -.11229563E-2
MEAN_MOTION_DOT = -.65688E-3
MEAN_MOTION_DDOT = 0

CCSDS_OMM_VERS = 2.0
CREATION_DATE  = 
ORIGINATOR     = 

OBJECT_NAME    = STARLINK-36479
OBJECT_ID      = 2026-003U
CENTER_NAME    = EARTH
REF_FRAME      = TEME
TIME_SYSTEM    = UTC
MEAN_ELEMENT_THEORY = SGP/SGP4

EPOCH          = 2026-02-04T06:00:04.000320
MEAN_MOTION    = 15.50523942
ECCENTRICITY   = .00012223
INCLINATION    = 42.9994
RA_OF_ASC_NODE = 57.0389
ARG_OF_PERICENTER = 265.4779
MEAN_ANOMALY   = 208.8425

EPHEMERIS_TYPE = 0
CLASSIFICATION_TYPE = U
NORAD_CAT_ID   = 67352
ELEMENT_SET_NO = 999
REV_AT_EPOCH   = 530
BSTAR          = .79605261E-3
MEAN_MOTION_DOT = .46545E-3
MEAN_MOTION_DDOT = 0

CCSDS_OMM_VERS = 2.0
CREATION_DATE  = 
ORIGINATOR     = 

OBJECT_NAME    = STARLINK-36474
OBJECT_ID      = 2026-003V
CENTER_NAME    = EARTH
REF_FRAME      = TEME
TIME_SYSTEM    = UTC
MEAN_ELEMENT_THEORY = SGP/SGP4

EPOCH          = 2026-02-04T06:00:04.000320
MEAN_MOTION    = 15.50593566
ECCENTRICITY   = .00012621
INCLINATION    = 42.9992
RA_OF_ASC_NODE = 57.0337
ARG_OF_PERICENTER = 265.5914
MEAN_ANOMALY   = 210.6229

EPHEMERIS_TYPE = 0
CLASSIFICATION_TYPE = U
NORAD_CAT_ID   = 67353
ELEMENT_SET_NO = 999
REV_AT_EPOCH   = 530
BSTAR          = -.12388911E-2
MEAN_MOTION_DOT = -.72389E-3
MEAN_MOTION_DDOT = 0

CCSDS_OMM_VERS = 2.0
CREATION_DATE  = 
ORIGINATOR     = 

OBJECT_NAME    = STARLINK-36448
OBJECT_ID      = 2026-003W
CENTER_NAME    = EARTH
REF_FRAME      = TEME
TIME_SYSTEM    = UTC
MEAN_ELEMENT_THEORY = SGP/SGP4

EPOCH          = 2026-02-04T06:00:04.000320
MEAN_MOTION    = 15.50601820
ECCENTRICITY   = .00013462
INCLINATION    = 42.9992
RA_OF_ASC_NODE = 57.0188
ARG_OF_PERICENTER = 267.0746
MEAN_ANOMALY   = 214.8907

EPHEMERIS_TYPE = 0
CLASSIFICATION_TYPE = U
NORAD_CAT_ID   = 67354
ELEMENT_SET_NO = 999
REV_AT_EPOCH   = 530
BSTAR          = -.14540286E-2
MEAN_MOTION_DOT = -.84793E-3
MEAN_MOTION_DDOT = 0

CCSDS_OMM_VERS = 2.0
CREATION_DATE  = 
ORIGINATOR     = 

OBJECT_NAME    = STARLINK-36477
OBJECT_ID      = 2026-003X
CENTER_NAME    = EARTH
REF_FRAME      = TEME
TIME_SYSTEM    = UTC
MEAN_ELEMENT_THEORY = SGP/SGP4

EPOCH          = 2026-02-04T06:00:04.000320
MEAN_MOTION    = 15.50529681
ECCENTRICITY   = .00013028
INCLINATION    = 42.9992
RA_OF_ASC_NODE = 57.0288
ARG_OF_PERICENTER = 261.9821
MEAN_ANOMALY   = 216.1678

EPHEMERIS_TYPE = 0
CLASSIFICATION_TYPE = U
NORAD_CAT_ID   = 67355
ELEMENT_SET_NO = 999
REV_AT_EPOCH   = 529
BSTAR          = .66766243E-3
MEAN_MOTION_DOT = .38953E-3
MEAN_MOTION_DDOT = 0

CCSDS_OMM_VERS = 2.0
CREATION_DATE  = 
ORIGINATOR     = 

OBJECT_NAME    = STARLINK-36429
OBJECT_ID      = 2026-003Y
CENTER_NAME    = EARTH
REF_FRAME      = TEME
TIME_SYSTEM    = UTC
MEAN_ELEMENT_THEORY = SGP/SGP4

EPOCH          = 2026-02-04T06:00:04.000320
MEAN_MOTION    = 15.50590753
ECCENTRICITY   = .00012843
INCLINATION    = 42.9991
RA_OF_ASC_NODE = 57.0239
ARG_OF_PERICENTER = 266.0417
MEAN_ANOMALY   = 214.0080

EPHEMERIS_TYPE = 0
CLASSIFICATION_TYPE = U
NORAD_CAT_ID   = 67356
ELEMENT_SET_NO = 999
REV_AT_EPOCH   = 529
BSTAR          = -.11366888E-2
MEAN_MOTION_DOT = -.66489E-3
MEAN_MOTION_DDOT = 0

CCSDS_OMM_VERS = 2.0
CREATION_DATE  = 
ORIGINATOR     = 

OBJECT_NAME    = STARLINK-36456
OBJECT_ID      = 2026-003Z
CENTER_NAME    = EARTH
REF_FRAME      = TEME
TIME_SYSTEM    = UTC
MEAN_ELEMENT_THEORY = SGP/SGP4

EPOCH          = 2026-02-04T06:00:04.000320
MEAN_MOTION    = 15.50539242
ECCENTRICITY   = .00012869
INCLINATION    = 42.9992
RA_OF_ASC_NODE = 57.0136
ARG_OF_PERICENTER = 265.4243
MEAN_ANOMALY   = 218.4098

EPHEMERIS_TYPE = 0
CLASSIFICATION_TYPE = U
NORAD_CAT_ID   = 67357
ELEMENT_SET_NO = 999
REV_AT_EPOCH   = 530
BSTAR          = .71344994E-3
MEAN_MOTION_DOT = .41676E-3
MEAN_MOTION_DDOT = 0

