STARLINK-36472          
1 67346U 26003N   26035.25004630 -.00062916  00000+0 -10749-2 0  9991
2 67346  42.9993  57.0678 0001431 267.5795 195.2173 15.50587480  5294
STARLINK-36420          
1 67347U 26003P   26035.25004630 -.00070565  00000+0 -12072-2 0  9992
2 67347  42.9993  57.0578 0001378 269.2034 197.4248 15.50593039  5305
STARLINK-36467          
1 67348U 26003Q   26035.25004630 -.00081553  00000+0 -13978-2 0  9998
2 67348  42.9993  57.0636 0001410 269.0688 195.6407 15.50598666  5309
STARLINK-36457          
1 67349U 26003R   26035.25004630 -.00075515  00000+0 -12930-2 0  9997
2 67349  42.9993  57.0534 0001329 264.2535 204.2895 15.50596254  5303
STARLINK-36475          
1 67350U 26003S   26035.25004630 -.00080057  00000+0 -13717-2 0  9990
2 67350  42.9993  57.0479 0001375 256.9490 213.5104 15.50600123  5297
STARLINK-36478          
1 67351U 26003T   26035.25004630 -.00065688  00000+0 -11230-2 0  9992
2 67351  42.9992  57.0434 0001111 266.8452 205.5374 15.50587559  5291
STARLINK-36479          
1 67352U 26003U   26035.25004630  .00046545  00000+0  79605-3 0  9993
2 67352  42.9994  57.0389 0001222 265.4779 208.8425 15.50523942  5304
STARLINK-36474          
1 67353U 26003V   26035.25004630 -.00072389  00000+0 -12389-2 0  9996
2 67353  42.9992  57.0337 0001262 265.5914 210.6229 15.50593566  5304
STARLINK-36448          
1 67354U 26003W   26035.25004630 -.00084793  00000+0 -14540-2 0  9990
2 67354  42.9992  57.0188 0001346 267.0746 214.8907 15.50601820  5304
STARLINK-36477          
1 67355U 26003X   26035.25004630  .00038953  00000+0  66766-3 0  9994
2 67355  42.9992  57.0288 0001302 261.9821 216.1678 15.50529681  5297
STARLINK-36429          
1 67356U 26003Y   26035.25004630 -.00066489  00000+0 -11367-2 0  9998
2 67356  42.9991  57.0239 0001284 266.0417 214.0080 15.50590753  5291
STARLINK-36456          
1 67357U 26003Z   26035.25004630  .00041676  00000+0  71345-3 0  9991
2 67357  42.9992  57.0136 0001286 265.4243 218.4098 15.50539242  5306
